{
  "type": "FeatureCollection",
  "features": [
    {
      "type": "Feature",
      "properties": {
        "norad_id": 35020,
        "name": "COSMOS 2251 DEB",
        "group": "cosmos-2251-debris",
        "lat": 48.33250216495677,
        "lon": 14.414894767393761,
        "alt_km": 739.6917719437688,
        "timestamp": "2025-12-05T07:38:19.241152+00:00",
        "meta_object_name": "COSMOS 2251 DEB",
        "meta_object_id": "1993-036AGH",
        "meta_epoch": "2025-12-03T23:51:51.836544",
        "meta_mean_motion": 14.62782261,
        "meta_eccentricity": 0.00907882,
        "meta_inclination": 74.0466,
        "meta_ra_of_asc_node": 215.6994,
        "meta_arg_of_pericenter": 331.8391,
        "meta_mean_anomaly": 27.7881,
        "meta_ephemeris_type": 0,
        "meta_classification_type": "U",
        "meta_norad_cat_id": 35020,
        "meta_element_set_no": 999,
        "meta_rev_at_epoch": 88110,
        "meta_bstar": 0.00032056499,
        "meta_mean_motion_dot": 1.702e-05,
        "meta_mean_motion_ddot": 0,
        "tle_line1": "1 35020U 93036AGH 25337.99434996  .00001702  00000+0  32056-3 0  9992",
        "tle_line2": "2 35020  74.0466 215.6994 0090788 331.8391  27.7881 14.62782261881105"
      },
      "geometry": {
        "type": "Point",
        "coordinates": [
          14.414894767393761,
          48.33250216495677
        ]
      }
    },
    {
      "type": "Feature",
      "properties": {
        "norad_id": 35022,
        "name": "COSMOS 2251 DEB",
        "group": "cosmos-2251-debris",
        "lat": -50.783323052783956,
        "lon": 176.67285484098713,
        "alt_km": 678.2225109265919,
        "timestamp": "2025-12-05T07:38:19.241162+00:00",
        "meta_object_name": "COSMOS 2251 DEB",
        "meta_object_id": "1993-036AGK",
        "meta_epoch": "2025-12-02T17:45:34.658208",
        "meta_mean_motion": 14.60763876,
        "meta_eccentricity": 0.00472905,
        "meta_inclination": 74.0262,
        "meta_ra_of_asc_node": 341.0512,
        "meta_arg_of_pericenter": 183.6288,
        "meta_mean_anomaly": 176.4543,
        "meta_ephemeris_type": 0,
        "meta_classification_type": "U",
        "meta_norad_cat_id": 35022,
        "meta_element_set_no": 999,
        "meta_rev_at_epoch": 58997,
        "meta_bstar": 0.00056913021,
        "meta_mean_motion_dot": 2.791e-05,
        "meta_mean_motion_ddot": 0,
        "tle_line1": "1 35022U 93036AGK 25336.73998447  .00002791  00000+0  56913-3 0  9998",
        "tle_line2": "2 35022  74.0262 341.0512 0047290 183.6288 176.4543 14.60763876589975"
      },
      "geometry": {
        "type": "Point",
        "coordinates": [
          176.67285484098713,
          -50.783323052783956
        ]
      }
    },
    {
      "type": "Feature",
      "properties": {
        "norad_id": 35023,
        "name": "COSMOS 2251 DEB",
        "group": "cosmos-2251-debris",
        "lat": -35.62988892492996,
        "lon": 59.38656024129013,
        "alt_km": 588.8962807384605,
        "timestamp": "2025-12-05T07:38:19.241173+00:00",
        "meta_object_name": "COSMOS 2251 DEB",
        "meta_object_id": "1993-036AGL",
        "meta_epoch": "2025-12-03T21:30:43.062336",
        "meta_mean_motion": 14.94619992,
        "meta_eccentricity": 0.003445,
        "meta_inclination": 74.0388,
        "meta_ra_of_asc_node": 230.4137,
        "meta_arg_of_pericenter": 309.9372,
        "meta_mean_anomaly": 179.6573,
        "meta_ephemeris_type": 0,
        "meta_classification_type": "U",
        "meta_norad_cat_id": 35023,
        "meta_element_set_no": 999,
        "meta_rev_at_epoch": 88147,
        "meta_bstar": 0.0033983,
        "meta_mean_motion_dot": 0.00037404,
        "meta_mean_motion_ddot": 0,
        "tle_line1": "1 35023U 93036AGL 25337.89633174  .00037404  00000+0  33983-2 0  9990",
        "tle_line2": "2 35023  74.0388 230.4137 0034450 309.9372 179.6573 14.94619992881474"
      },
      "geometry": {
        "type": "Point",
        "coordinates": [
          59.38656024129013,
          -35.62988892492996
        ]
      }
    },
    {
      "type": "Feature",
      "properties": {
        "norad_id": 35025,
        "name": "COSMOS 2251 DEB",
        "group": "cosmos-2251-debris",
        "lat": 13.438492158508392,
        "lon": -106.48010605850118,
        "alt_km": 712.5777785862138,
        "timestamp": "2025-12-05T07:38:19.241183+00:00",
        "meta_object_name": "COSMOS 2251 DEB",
        "meta_object_id": "1993-036AGN",
        "meta_epoch": "2025-12-03T01:05:05.186688",
        "meta_mean_motion": 14.72628151,
        "meta_eccentricity": 0.00846667,
        "meta_inclination": 73.9382,
        "meta_ra_of_asc_node": 81.9179,
        "meta_arg_of_pericenter": 356.9044,
        "meta_mean_anomaly": 3.1592,
        "meta_ephemeris_type": 0,
        "meta_classification_type": "U",
        "meta_norad_cat_id": 35025,
        "meta_element_set_no": 999,
        "meta_rev_at_epoch": 88500,
        "meta_bstar": 0.00048771001,
        "meta_mean_motion_dot": 3.252e-05,
        "meta_mean_motion_ddot": 0,
        "tle_line1": "1 35025U 93036AGN 25337.04519892  .00003252  00000+0  48771-3 0  9995",
        "tle_line2": "2 35025  73.9382  81.9179 0084666 356.9044   3.1592 14.72628151885003"
      },
      "geometry": {
        "type": "Point",
        "coordinates": [
          -106.48010605850118,
          13.438492158508392
        ]
      }
    },
    {
      "type": "Feature",
      "properties": {
        "norad_id": 35026,
        "name": "COSMOS 2251 DEB",
        "group": "cosmos-2251-debris",
        "lat": -5.677174496689927,
        "lon": 154.44339906734965,
        "alt_km": 724.2145636967198,
        "timestamp": "2025-12-05T07:38:19.241193+00:00",
        "meta_object_name": "COSMOS 2251 DEB",
        "meta_object_id": "1993-036AGP",
        "meta_epoch": "2025-12-04T06:05:20.430816",
        "meta_mean_motion": 14.53615447,
        "meta_eccentricity": 0.008225,
        "meta_inclination": 74.0467,
        "meta_ra_of_asc_node": 334.8227,
        "meta_arg_of_pericenter": 90.6977,
        "meta_mean_anomaly": 285.5237,
        "meta_ephemeris_type": 0,
        "meta_classification_type": "U",
        "meta_norad_cat_id": 35026,
        "meta_element_set_no": 999,
        "meta_rev_at_epoch": 88020,
        "meta_bstar": 0.00011976,
        "meta_mean_motion_dot": 4.94e-06,
        "meta_mean_motion_ddot": 0,
        "tle_line1": "1 35026U 93036AGP 25338.25370869  .00000494  00000+0  11976-3 0  9991",
        "tle_line2": "2 35026  74.0467 334.8227 0082250  90.6977 285.5237 14.53615447880200"
      },
      "geometry": {
        "type": "Point",
        "coordinates": [
          154.44339906734965,
          -5.677174496689927
        ]
      }
    },
    {
      "type": "Feature",
      "properties": {
        "norad_id": 35028,
        "name": "COSMOS 2251 DEB",
        "group": "cosmos-2251-debris",
        "lat": -37.48622282976917,
        "lon": 117.74499330407589,
        "alt_km": 764.3863274578698,
        "timestamp": "2025-12-05T07:38:19.241203+00:00",
        "meta_object_name": "COSMOS 2251 DEB",
        "meta_object_id": "1993-036AGR",
        "meta_epoch": "2025-12-03T07:31:08.250816",
        "meta_mean_motion": 14.56553316,
        "meta_eccentricity": 0.0082193,
        "meta_inclination": 74.0379,
        "meta_ra_of_asc_node": 288.8678,
        "meta_arg_of_pericenter": 65.1818,
        "meta_mean_anomaly": 84.6032,
        "meta_ephemeris_type": 0,
        "meta_classification_type": "U",
        "meta_norad_cat_id": 35028,
        "meta_element_set_no": 999,
        "meta_rev_at_epoch": 88148,
        "meta_bstar": 0.00016513,
        "meta_mean_motion_dot": 7.39e-06,
        "meta_mean_motion_ddot": 0,
        "tle_line1": "1 35028U 93036AGR 25337.31328994  .00000739  00000+0  16513-3 0  9995",
        "tle_line2": "2 35028  74.0379 288.8678 0082193  65.1818  84.6032 14.56553316881480"
      },
      "geometry": {
        "type": "Point",
        "coordinates": [
          117.74499330407589,
          -37.48622282976917
        ]
      }
    },
    {
      "type": "Feature",
      "properties": {
        "norad_id": 35031,
        "name": "COSMOS 2251 DEB",
        "group": "cosmos-2251-debris",
        "lat": -70.00264117261867,
        "lon": 144.79173621944514,
        "alt_km": 775.6397692983246,
        "timestamp": "2025-12-05T07:38:19.241214+00:00",
        "meta_object_name": "COSMOS 2251 DEB",
        "meta_object_id": "1993-036AGU",
        "meta_epoch": "2025-12-04T03:44:01.634208",
        "meta_mean_motion": 14.38277521,
        "meta_eccentricity": 0.00184824,
        "meta_inclination": 74.0384,
        "meta_ra_of_asc_node": 275.0774,
        "meta_arg_of_pericenter": 10.3454,
        "meta_mean_anomaly": 349.8076,
        "meta_ephemeris_type": 0,
        "meta_classification_type": "U",
        "meta_norad_cat_id": 35031,
        "meta_element_set_no": 999,
        "meta_rev_at_epoch": 65160,
        "meta_bstar": 0.00035811322,
        "meta_mean_motion_dot": 1.065e-05,
        "meta_mean_motion_ddot": 0,
        "tle_line1": "1 35031U 93036AGU 25338.15557447  .00001065  00000+0  35811-3 0  9994",
        "tle_line2": "2 35031  74.0384 275.0774 0018482  10.3454 349.8076 14.38277521651607"
      },
      "geometry": {
        "type": "Point",
        "coordinates": [
          144.79173621944514,
          -70.00264117261867
        ]
      }
    }
  ]
}